[{"OBJECT_NAME":"HST","OBJECT_ID":"1990-037B","EPOCH":"2026-04-25T14:02:48.110784","MEAN_MOTION":15.30144545,"ECCENTRICITY":0.0001645,"INCLINATION":28.4745,"RA_OF_ASC_NODE":79.9164,"ARG_OF_PERICENTER":280.6914,"MEAN_ANOMALY":79.3497,"EPHEMERIS_TYPE":0,"CLASSIFICATION_TYPE":"U","NORAD_CAT_ID":20580,"ELEMENT_SET_NO":999,"REV_AT_EPOCH":78050,"BSTAR":0.00020815,"MEAN_MOTION_DOT":6.48e-5,"MEAN_MOTION_DDOT":0},{"OBJECT_NAME":"POLAR","OBJECT_ID":"1996-013A","EPOCH":"2026-04-24T21:23:43.555776","MEAN_MOTION":1.29845728,"ECCENTRICITY":0.641688,"INCLINATION":79.8018,"RA_OF_ASC_NODE":227.6689,"ARG_OF_PERICENTER":210.9025,"MEAN_ANOMALY":86.6658,"EPHEMERIS_TYPE":0,"CLASSIFICATION_TYPE":"U","NORAD_CAT_ID":23802,"ELEMENT_SET_NO":999,"REV_AT_EPOCH":14416,"BSTAR":0,"MEAN_MOTION_DOT":3.2e-7,"MEAN_MOTION_DDOT":0},{"OBJECT_NAME":"SWAS","OBJECT_ID":"1998-071A","EPOCH":"2026-04-25T20:41:24.830016","MEAN_MOTION":15.09254072,"ECCENTRICITY":0.0007311,"INCLINATION":69.8979,"RA_OF_ASC_NODE":2.419,"ARG_OF_PERICENTER":312.1745,"MEAN_ANOMALY":47.8797,"EPHEMERIS_TYPE":0,"CLASSIFICATION_TYPE":"U","NORAD_CAT_ID":25560,"ELEMENT_SET_NO":999,"REV_AT_EPOCH":48937,"BSTAR":0.0002848,"MEAN_MOTION_DOT":4.444e-5,"MEAN_MOTION_DDOT":0},{"OBJECT_NAME":"CXO","OBJECT_ID":"1999-040B","EPOCH":"2026-04-26T11:39:03.576384","MEAN_MOTION":0.37809726,"ECCENTRICITY":0.7921578,"INCLINATION":55.3936,"RA_OF_ASC_NODE":118.0844,"ARG_OF_PERICENTER":310.6209,"MEAN_ANOMALY":359.8842,"EPHEMERIS_TYPE":0,"CLASSIFICATION_TYPE":"U","NORAD_CAT_ID":25867,"ELEMENT_SET_NO":999,"REV_AT_EPOCH":1712,"BSTAR":0,"MEAN_MOTION_DOT":6.35e-6,"MEAN_MOTION_DDOT":0},{"OBJECT_NAME":"XMM-NEWTON","OBJECT_ID":"1999-066A","EPOCH":"2026-04-27T11:42:44.676576","MEAN_MOTION":0.50130113,"ECCENTRICITY":0.468937,"INCLINATION":64.7433,"RA_OF_ASC_NODE":283.632,"ARG_OF_PERICENTER":65.8291,"MEAN_ANOMALY":0.0919,"EPHEMERIS_TYPE":0,"CLASSIFICATION_TYPE":"U","NORAD_CAT_ID":25989,"ELEMENT_SET_NO":999,"REV_AT_EPOCH":2275,"BSTAR":0,"MEAN_MOTION_DOT":-2.2e-7,"MEAN_MOTION_DDOT":0},{"OBJECT_NAME":"TERRA","OBJECT_ID":"1999-068A","EPOCH":"2026-04-25T20:07:10.308000","MEAN_MOTION":14.61060159,"ECCENTRICITY":0.0003216,"INCLINATION":97.9503,"RA_OF_ASC_NODE":167.449,"ARG_OF_PERICENTER":56.8981,"MEAN_ANOMALY":31.3058,"EPHEMERIS_TYPE":0,"CLASSIFICATION_TYPE":"U","NORAD_CAT_ID":25994,"ELEMENT_SET_NO":999,"REV_AT_EPOCH":40196,"BSTAR":8.609e-5,"MEAN_MOTION_DOT":3.78e-6,"MEAN_MOTION_DDOT":0},{"OBJECT_NAME":"CLUSTER II-FM7 (SAMBA)","OBJECT_ID":"2000-041A","EPOCH":"2026-04-26T19:37:20.969184","MEAN_MOTION":0.44809102,"ECCENTRICITY":0.89922964,"INCLINATION":149.6713,"RA_OF_ASC_NODE":42.1462,"ARG_OF_PERICENTER":258.689,"MEAN_ANOMALY":0.4419,"EPHEMERIS_TYPE":0,"CLASSIFICATION_TYPE":"U","NORAD_CAT_ID":26410,"ELEMENT_SET_NO":999,"REV_AT_EPOCH":2007,"BSTAR":0,"MEAN_MOTION_DOT":2.042e-5,"MEAN_MOTION_DDOT":0},{"OBJECT_NAME":"CLUSTER II-FM8 (TANGO)","OBJECT_ID":"2000-045B","EPOCH":"2026-04-26T15:11:14.906688","MEAN_MOTION":0.44399945,"ECCENTRICITY":0.89958136,"INCLINATION":149.9394,"RA_OF_ASC_NODE":43.1014,"ARG_OF_PERICENTER":259.4942,"MEAN_ANOMALY":0.9419,"EPHEMERIS_TYPE":0,"CLASSIFICATION_TYPE":"U","NORAD_CAT_ID":26464,"ELEMENT_SET_NO":999,"REV_AT_EPOCH":2006,"BSTAR":0,"MEAN_MOTION_DOT":2.138e-5,"MEAN_MOTION_DDOT":0},{"OBJECT_NAME":"ODIN","OBJECT_ID":"2001-007A","EPOCH":"2026-04-25T15:38:12.581664","MEAN_MOTION":15.63195176,"ECCENTRICITY":0.0001967,"INCLINATION":97.3973,"RA_OF_ASC_NODE":153.7627,"ARG_OF_PERICENTER":40.6172,"MEAN_ANOMALY":319.5233,"EPHEMERIS_TYPE":0,"CLASSIFICATION_TYPE":"U","NORAD_CAT_ID":26702,"ELEMENT_SET_NO":999,"REV_AT_EPOCH":38116,"BSTAR":0.00053518,"MEAN_MOTION_DOT":0.00048977,"MEAN_MOTION_DDOT":0},{"OBJECT_NAME":"TIMED","OBJECT_ID":"2001-055B","EPOCH":"2026-04-25T08:26:21.105024","MEAN_MOTION":14.95166086,"ECCENTRICITY":0.0001791,"INCLINATION":74.0685,"RA_OF_ASC_NODE":341.3956,"ARG_OF_PERICENTER":212.5836,"MEAN_ANOMALY":147.5238,"EPHEMERIS_TYPE":0,"CLASSIFICATION_TYPE":"U","NORAD_CAT_ID":26998,"ELEMENT_SET_NO":999,"REV_AT_EPOCH":32292,"BSTAR":9.7312e-5,"MEAN_MOTION_DOT":1.029e-5,"MEAN_MOTION_DDOT":0},{"OBJECT_NAME":"CORIOLIS","OBJECT_ID":"2003-001A","EPOCH":"2026-04-25T18:30:13.269024","MEAN_MOTION":14.19929625,"ECCENTRICITY":0.0014112,"INCLINATION":98.7145,"RA_OF_ASC_NODE":123.4535,"ARG_OF_PERICENTER":8.9832,"MEAN_ANOMALY":351.1594,"EPHEMERIS_TYPE":0,"CLASSIFICATION_TYPE":"U","NORAD_CAT_ID":27640,"ELEMENT_SET_NO":999,"REV_AT_EPOCH":20678,"BSTAR":7.2886e-5,"MEAN_MOTION_DOT":1.11e-6,"MEAN_MOTION_DDOT":0},{"OBJECT_NAME":"SORCE","OBJECT_ID":"2003-004A","EPOCH":"2026-04-25T16:01:04.199808","MEAN_MOTION":15.03418116,"ECCENTRICITY":0.0016536,"INCLINATION":39.9899,"RA_OF_ASC_NODE":201.2547,"ARG_OF_PERICENTER":31.4179,"MEAN_ANOMALY":328.7599,"EPHEMERIS_TYPE":0,"CLASSIFICATION_TYPE":"U","NORAD_CAT_ID":27651,"ELEMENT_SET_NO":999,"REV_AT_EPOCH":26399,"BSTAR":0.00021142,"MEAN_MOTION_DOT":2.783e-5,"MEAN_MOTION_DDOT":0},{"OBJECT_NAME":"MOST","OBJECT_ID":"2003-031D","EPOCH":"2026-04-25T11:36:54.097344","MEAN_MOTION":14.21311063,"ECCENTRICITY":0.0010702,"INCLINATION":98.7065,"RA_OF_ASC_NODE":123.9427,"ARG_OF_PERICENTER":49.296,"MEAN_ANOMALY":310.9145,"EPHEMERIS_TYPE":0,"CLASSIFICATION_TYPE":"U","NORAD_CAT_ID":27843,"ELEMENT_SET_NO":999,"REV_AT_EPOCH":18322,"BSTAR":4.9729e-5,"MEAN_MOTION_DOT":6.5e-7,"MEAN_MOTION_DDOT":0},{"OBJECT_NAME":"SCISAT 1","OBJECT_ID":"2003-036A","EPOCH":"2026-04-25T11:36:54.574272","MEAN_MOTION":14.81385247,"ECCENTRICITY":0.0007492,"INCLINATION":73.9287,"RA_OF_ASC_NODE":276.0511,"ARG_OF_PERICENTER":342.9724,"MEAN_ANOMALY":17.1199,"EPHEMERIS_TYPE":0,"CLASSIFICATION_TYPE":"U","NORAD_CAT_ID":27858,"ELEMENT_SET_NO":999,"REV_AT_EPOCH":22364,"BSTAR":7.7492e-5,"MEAN_MOTION_DOT":5.69e-6,"MEAN_MOTION_DDOT":0},{"OBJECT_NAME":"SWIFT","OBJECT_ID":"2004-047A","EPOCH":"2026-04-25T15:04:44.203296","MEAN_MOTION":15.63536129,"ECCENTRICITY":0.0001604,"INCLINATION":20.5525,"RA_OF_ASC_NODE":228.8093,"ARG_OF_PERICENTER":312.5282,"MEAN_ANOMALY":47.5027,"EPHEMERIS_TYPE":0,"CLASSIFICATION_TYPE":"U","NORAD_CAT_ID":28485,"ELEMENT_SET_NO":999,"REV_AT_EPOCH":17861,"BSTAR":0.00043688,"MEAN_MOTION_DOT":0.00043357,"MEAN_MOTION_DDOT":0},{"OBJECT_NAME":"HINODE (SOLAR-B)","OBJECT_ID":"2006-041A","EPOCH":"2026-04-25T18:58:28.798176","MEAN_MOTION":14.68544355,"ECCENTRICITY":0.0018974,"INCLINATION":98.058,"RA_OF_ASC_NODE":132.7121,"ARG_OF_PERICENTER":94.3749,"MEAN_ANOMALY":265.9625,"EPHEMERIS_TYPE":0,"CLASSIFICATION_TYPE":"U","NORAD_CAT_ID":29479,"ELEMENT_SET_NO":999,"REV_AT_EPOCH":4718,"BSTAR":0.00011437,"MEAN_MOTION_DOT":6.16e-6,"MEAN_MOTION_DDOT":0},{"OBJECT_NAME":"SHIJIAN-6 02A (SJ-6 02A)","OBJECT_ID":"2006-046A","EPOCH":"2026-04-25T12:10:40.444320","MEAN_MOTION":15.16334964,"ECCENTRICITY":0.0002391,"INCLINATION":97.6419,"RA_OF_ASC_NODE":156.1905,"ARG_OF_PERICENTER":355.6932,"MEAN_ANOMALY":4.428,"EPHEMERIS_TYPE":0,"CLASSIFICATION_TYPE":"U","NORAD_CAT_ID":29505,"ELEMENT_SET_NO":999,"REV_AT_EPOCH":6428,"BSTAR":0.00046512,"MEAN_MOTION_DOT":8.955e-5,"MEAN_MOTION_DDOT":0}]
